[{"OBJECT_NAME":"STARLINK-1183","OBJECT_ID":"2020-006AW","EPOCH":"2026-03-09T18:04:02.447040","MEAN_MOTION":15.30192923,"ECCENTRICITY":0.00012117,"INCLINATION":53.1598,"RA_OF_ASC_NODE":242.29,"ARG_OF_PERICENTER":78.0692,"MEAN_ANOMALY":282.0445,"EPHEMERIS_TYPE":0,"CLASSIFICATION_TYPE":"U","NORAD_CAT_ID":45088,"ELEMENT_SET_NO":999,"REV_AT_EPOCH":33709,"BSTAR":5.3320737e-5,"MEAN_MOTION_DOT":1.22e-5,"MEAN_MOTION_DDOT":0},{"OBJECT_NAME":"CZ-6A R\/B","OBJECT_ID":"2023-168B","EPOCH":"2026-03-09T21:13:08.722272","MEAN_MOTION":15.16100791,"ECCENTRICITY":0.00607667,"INCLINATION":97.7542,"RA_OF_ASC_NODE":104.7688,"ARG_OF_PERICENTER":339.2379,"MEAN_ANOMALY":20.6386,"EPHEMERIS_TYPE":0,"CLASSIFICATION_TYPE":"U","NORAD_CAT_ID":58200,"ELEMENT_SET_NO":999,"REV_AT_EPOCH":12979,"BSTAR":0.00029693841,"MEAN_MOTION_DOT":5.919e-5,"MEAN_MOTION_DDOT":0}]
